{"fetched_at":"2026-07-14T17:40:33.728Z","source":"https://celestrak.org/NORAD/elements/gp.php?NAME=ASTROCAST&FORMAT=JSON","constellation":"astrocast","records":[{"OBJECT_NAME":"ASTROCAST 0.1","OBJECT_ID":"2018-099AS","EPOCH":"2026-07-14T04:10:21.484128","CLASSIFICATION_TYPE":"U","MEAN_MOTION":15.51405312,"ECCENTRICITY":0.0005673,"INCLINATION":97.4374,"RA_OF_ASC_NODE":274.5478,"ARG_OF_PERICENTER":133.3052,"MEAN_ANOMALY":226.8674,"EPHEMERIS_TYPE":0,"NORAD_CAT_ID":43798,"ELEMENT_SET_NO":999,"REV_AT_EPOCH":41861,"BSTAR":0.00042369,"MEAN_MOTION_DOT":0.00024913,"MEAN_MOTION_DDOT":0},{"OBJECT_NAME":"ASTROCAST-0402","OBJECT_ID":"2023-001DE","EPOCH":"2026-07-14T04:56:56.906016","CLASSIFICATION_TYPE":"U","MEAN_MOTION":15.28994243,"ECCENTRICITY":0.0006376,"INCLINATION":97.5592,"RA_OF_ASC_NODE":288.8164,"ARG_OF_PERICENTER":137.3212,"MEAN_ANOMALY":222.8523,"EPHEMERIS_TYPE":0,"NORAD_CAT_ID":55109,"ELEMENT_SET_NO":999,"REV_AT_EPOCH":14866,"BSTAR":0.0002175,"MEAN_MOTION_DOT":0.00006049,"MEAN_MOTION_DDOT":0},{"OBJECT_NAME":"ASTROCAST-0401","OBJECT_ID":"2023-001DF","EPOCH":"2026-07-14T05:18:52.581024","CLASSIFICATION_TYPE":"U","MEAN_MOTION":15.28528644,"ECCENTRICITY":0.0009508,"INCLINATION":97.5574,"RA_OF_ASC_NODE":288.6383,"ARG_OF_PERICENTER":111.1843,"MEAN_ANOMALY":249.0413,"EPHEMERIS_TYPE":0,"NORAD_CAT_ID":55110,"ELEMENT_SET_NO":999,"REV_AT_EPOCH":19533,"BSTAR":0.00034593,"MEAN_MOTION_DOT":0.0000954,"MEAN_MOTION_DDOT":0},{"OBJECT_NAME":"ASTROCAST-0403","OBJECT_ID":"2023-001DG","EPOCH":"2026-07-14T04:12:18.544032","CLASSIFICATION_TYPE":"U","MEAN_MOTION":15.32328858,"ECCENTRICITY":0.0004622,"INCLINATION":97.5629,"RA_OF_ASC_NODE":289.9049,"ARG_OF_PERICENTER":215.4918,"MEAN_ANOMALY":144.6016,"EPHEMERIS_TYPE":0,"NORAD_CAT_ID":55111,"ELEMENT_SET_NO":999,"REV_AT_EPOCH":14869,"BSTAR":0.00043491,"MEAN_MOTION_DOT":0.00013508,"MEAN_MOTION_DDOT":0},{"OBJECT_NAME":"ASTROCAST-0404","OBJECT_ID":"2023-001DH","EPOCH":"2026-07-14T04:10:57.888768","CLASSIFICATION_TYPE":"U","MEAN_MOTION":15.28814306,"ECCENTRICITY":0.0005043,"INCLINATION":97.5675,"RA_OF_ASC_NODE":289.7163,"ARG_OF_PERICENTER":248.0345,"MEAN_ANOMALY":112.0358,"EPHEMERIS_TYPE":0,"NORAD_CAT_ID":55112,"ELEMENT_SET_NO":999,"REV_AT_EPOCH":14865,"BSTAR":0.00016227,"MEAN_MOTION_DOT":0.00004466,"MEAN_MOTION_DDOT":0}]}
