ASTROCAST 0.1           
1 43798U 18099AS  26195.17385977  .00024913  00000+0  42369-3 0  9993
2 43798  97.4374 274.5478 0005673 133.3052 226.8674 15.51405312418614
ASTROCAST-0402          
1 55109U 23001DE  26195.20621419  .00006049  00000+0  21750-3 0  9990
2 55109  97.5592 288.8164 0006376 137.3212 222.8523 15.28994243148663
ASTROCAST-0401          
1 55110U 23001DF  26195.22144191  .00009540  00000+0  34593-3 0  9999
2 55110  97.5574 288.6383 0009508 111.1843 249.0413 15.28528644195339
ASTROCAST-0403          
1 55111U 23001DG  26195.17521463  .00013508  00000+0  43491-3 0  9991
2 55111  97.5629 289.9049 0004622 215.4918 144.6016 15.32328858148693
ASTROCAST-0404          
1 55112U 23001DH  26195.17428112  .00004466  00000+0  16227-3 0  9999
2 55112  97.5675 289.7163 0005043 248.0345 112.0358 15.28814306148651
